[
    {
        "Altitude(m)": 607886.6990188304,
        "Argument of Periapsis(deg)": 0.0,
        "Eccentricity": 0.0,
        "Inclination(deg)": 60.0,
        "Latitude(deg)": 40.998464159451466,
        "Longitude(deg)": -0.02714454285045094,
        "Mean Anomaly(deg)": 49.09089999999999,
        "RAAN(deg)": 70.0,
        "Satellite Name": "Test1 311",
        "Satellite Number": 311,
        "Semi-Major Axis(m)": 6980739.136638005,
        "Time(s)": 0
    },
    {
        "Altitude(m)": 607987.6135448571,
        "Argument of Periapsis(deg)": 0.00010418945913296404,
        "Eccentricity": 0.0,
        "Inclination(deg)": 60.0,
        "Latitude(deg)": 41.4635554977992,
        "Longitude(deg)": 0.47708144315684886,
        "Mean Anomaly(deg)": 49.71100614546181,
        "RAAN(deg)": 69.99957995086027,
        "Satellite Name": "Test1 311",
        "Satellite Number": 311,
        "Semi-Major Axis(m)": 6980739.136638005,
        "Time(s)": 10
    },
    {
        "Altitude(m)": 608088.5776958975,
        "Argument of Periapsis(deg)": 0.0002083789182659281,
        "Eccentricity": 0.0,
        "Inclination(deg)": 60.0,
        "Latitude(deg)": 41.92598268018356,
        "Longitude(deg)": 0.9891304384304345,
        "Mean Anomaly(deg)": 50.33111229092365,
        "RAAN(deg)": 69.9991599017205,
        "Satellite Name": "Test1 311",
        "Satellite Number": 311,
        "Semi-Major Axis(m)": 6980739.136638005,
        "Time(s)": 20
    },
    {
        "Altitude(m)": 608189.5282504667,
        "Argument of Periapsis(deg)": 0.00031256837739889213,
        "Eccentricity": 0.0,
        "Inclination(deg)": 60.0,
        "Latitude(deg)": 42.38566495733026,
        "Longitude(deg)": 1.5091984851328704,
        "Mean Anomaly(deg)": 50.95121843638549,
        "RAAN(deg)": 69.99873985258077,
        "Satellite Name": "Test1 311",
        "Satellite Number": 311,
        "Semi-Major Axis(m)": 6980739.136638005,
        "Time(s)": 30
    },
    {
        "Altitude(m)": 608290.402213807,
        "Argument of Periapsis(deg)": 0.0004167578365318562,
        "Eccentricity": 0.0,
        "Inclination(deg)": 60.0,
        "Latitude(deg)": 42.842519032921025,
        "Longitude(deg)": 2.0374854922431447,
        "Mean Anomaly(deg)": 51.571324581847335,
        "RAAN(deg)": 69.99831980344102,
        "Satellite Name": "Test1 311",
        "Satellite Number": 311,
        "Semi-Major Axis(m)": 6980739.136638005,
        "Time(s)": 40
    },
    {
        "Altitude(m)": 608391.1368491297,
        "Argument of Periapsis(deg)": 0.0005209472956648203,
        "Eccentricity": 0.0,
        "Inclination(deg)": 60.0,
        "Latitude(deg)": 43.296458984203845,
        "Longitude(deg)": 2.5741941405430127,
        "Mean Anomaly(deg)": 52.19143072730915,
        "RAAN(deg)": 69.99789975430129,
        "Satellite Name": "Test1 311",
        "Satellite Number": 311,
        "Semi-Major Axis(m)": 6980739.136638005,
        "Time(s)": 50
    },
    {
        "Altitude(m)": 608491.6697087038,
        "Argument of Periapsis(deg)": 0.0006251367547977843,
        "Eccentricity": 0.0,
        "Inclination(deg)": 60.0,
        "Latitude(deg)": 43.747396181897095,
        "Longitude(deg)": 3.119530280709971,
        "Mean Anomaly(deg)": 52.811536872770965,
        "RAAN(deg)": 69.99747970516154,
        "Satellite Name": "Test1 311",
        "Satellite Number": 311,
        "Semi-Major Axis(m)": 6980739.136638005,
        "Time(s)": 60
    },
    {
        "Altitude(m)": 608591.9386647351,
        "Argument of Periapsis(deg)": 0.0007293262139307483,
        "Eccentricity": 0.0,
        "Inclination(deg)": 60.0,
        "Latitude(deg)": 44.19523920961623,
        "Longitude(deg)": 3.6737033097550857,
        "Mean Anomaly(deg)": 53.4316430182328,
        "RAAN(deg)": 69.9970596560218,
        "Satellite Name": "Test1 311",
        "Satellite Number": 311,
        "Semi-Major Axis(m)": 6980739.136638005,
        "Time(s)": 70
    },
    {
        "Altitude(m)": 608691.8819400661,
        "Argument of Periapsis(deg)": 0.0008335156730637124,
        "Eccentricity": 0.0,
        "Inclination(deg)": 60.0,
        "Latitude(deg)": 44.63989378308463,
        "Longitude(deg)": 4.2369250109208645,
        "Mean Anomaly(deg)": 54.051749163694645,
        "RAAN(deg)": 69.99663960688207,
        "Satellite Name": "Test1 311",
        "Satellite Number": 311,
        "Semi-Major Axis(m)": 6980739.136638005,
        "Time(s)": 80
    },
    {
        "Altitude(m)": 608791.4381386202,
        "Argument of Periapsis(deg)": 0.0009377051321966765,
        "Eccentricity": 0.0,
        "Inclination(deg)": 60.0,
        "Latitude(deg)": 45.08126266943729,
        "Longitude(deg)": 4.8094098806503,
        "Mean Anomaly(deg)": 54.671855309156484,
        "RAAN(deg)": 69.99621955774232,
        "Satellite Name": "Test1 311",
        "Satellite Number": 311,
        "Semi-Major Axis(m)": 6980739.136638005,
        "Time(s)": 90
    },
    {
        "Altitude(m)": 608890.5462756791,
        "Argument of Periapsis(deg)": 0.0010418945913296407,
        "Eccentricity": 0.0,
        "Inclination(deg)": 60.0,
        "Latitude(deg)": 45.51924560695475,
        "Longitude(deg)": 5.391375427496037,
        "Mean Anomaly(deg)": 55.29196145461828,
        "RAAN(deg)": 69.99579950860256,
        "Satellite Name": "Test1 311",
        "Satellite Number": 311,
        "Semi-Major Axis(m)": 6980739.136638005,
        "Time(s)": 100
    },
    {
        "Altitude(m)": 608989.1458078293,
        "Argument of Periapsis(deg)": 0.0011460840504626045,
        "Eccentricity": 0.0,
        "Inclination(deg)": 60.0,
        "Latitude(deg)": 45.95373922561181,
        "Longitude(deg)": 5.98304092771534,
        "Mean Anomaly(deg)": 55.91206760008013,
        "RAAN(deg)": 69.99537945946282,
        "Satellite Name": "Test1 311",
        "Satellite Number": 311,
        "Semi-Major Axis(m)": 6980739.136638005,
        "Time(s)": 110
    },
    {
        "Altitude(m)": 609087.1766627311,
        "Argument of Periapsis(deg)": 0.0012502735095955685,
        "Eccentricity": 0.0,
        "Inclination(deg)": 60.0,
        "Latitude(deg)": 46.38463696887787,
        "Longitude(deg)": 6.5846276607986916,
        "Mean Anomaly(deg)": 56.53217374554196,
        "RAAN(deg)": 69.99495941032308,
        "Satellite Name": "Test1 311",
        "Satellite Number": 311,
        "Semi-Major Axis(m)": 6980739.136638005,
        "Time(s)": 120
    },
    {
        "Altitude(m)": 609184.579268558,
        "Argument of Periapsis(deg)": 0.0013544629687285324,
        "Eccentricity": 0.0,
        "Inclination(deg)": 60.0,
        "Latitude(deg)": 46.8118290172504,
        "Longitude(deg)": 7.196359109447847,
        "Mean Anomaly(deg)": 57.15227989100381,
        "RAAN(deg)": 69.99453936118334,
        "Satellite Name": "Test1 311",
        "Satellite Number": 311,
        "Semi-Major Axis(m)": 6980739.136638005,
        "Time(s)": 130
    },
    {
        "Altitude(m)": 609281.2945831897,
        "Argument of Periapsis(deg)": 0.0014586524278614966,
        "Eccentricity": 0.0,
        "Inclination(deg)": 60.0,
        "Latitude(deg)": 47.23520221405621,
        "Longitude(deg)": 7.818459608414093,
        "Mean Anomaly(deg)": 57.772386036465626,
        "RAAN(deg)": 69.9941193120436,
        "Satellite Name": "Test1 311",
        "Satellite Number": 311,
        "Semi-Major Axis(m)": 6980739.136638005,
        "Time(s)": 140
    },
    {
        "Altitude(m)": 609377.2641230781,
        "Argument of Periapsis(deg)": 0.0015628418869944607,
        "Eccentricity": 0.0,
        "Inclination(deg)": 60.0,
        "Latitude(deg)": 47.65463999412201,
        "Longitude(deg)": 8.45115446513474,
        "Mean Anomaly(deg)": 58.39249218192744,
        "RAAN(deg)": 69.99369926290386,
        "Satellite Name": "Test1 311",
        "Satellite Number": 311,
        "Semi-Major Axis(m)": 6980739.136638005,
        "Time(s)": 150
    },
    {
        "Altitude(m)": 609472.4299918223,
        "Argument of Periapsis(deg)": 0.0016670313461274247,
        "Eccentricity": 0.0,
        "Inclination(deg)": 60.0,
        "Latitude(deg)": 48.07002231596951,
        "Longitude(deg)": 9.094670036408552,
        "Mean Anomaly(deg)": 59.01259832738927,
        "RAAN(deg)": 69.99327921376411,
        "Satellite Name": "Test1 311",
        "Satellite Number": 311,
        "Semi-Major Axis(m)": 6980739.136638005,
        "Time(s)": 160
    },
    {
        "Altitude(m)": 609566.7349084078,
        "Argument of Periapsis(deg)": 0.0017712208052603888,
        "Eccentricity": 0.0,
        "Inclination(deg)": 60.0,
        "Latitude(deg)": 48.4812255982549,
        "Longitude(deg)": 9.749232245291,
        "Mean Anomaly(deg)": 59.63270447285112,
        "RAAN(deg)": 69.99285916462438,
        "Satellite Name": "Test1 311",
        "Satellite Number": 311,
        "Semi-Major Axis(m)": 6980739.136638005,
        "Time(s)": 170
    },
    {
        "Altitude(m)": 609660.1222351235,
        "Argument of Periapsis(deg)": 0.001875410264393353,
        "Eccentricity": 0.0,
        "Inclination(deg)": 60.0,
        "Latitude(deg)": 48.8881226612507,
        "Longitude(deg)": 10.415066560976003,
        "Mean Anomaly(deg)": 60.25281061831295,
        "RAAN(deg)": 69.99243911548463,
        "Satellite Name": "Test1 311",
        "Satellite Number": 311,
        "Semi-Major Axis(m)": 6980739.136638005,
        "Time(s)": 180
    },
    {
        "Altitude(m)": 609752.5360051143,
        "Argument of Periapsis(deg)": 0.0019795997235263173,
        "Eccentricity": 0.0,
        "Inclination(deg)": 60.0,
        "Latitude(deg)": 49.29058267423054,
        "Longitude(deg)": 11.092397925803505,
        "Mean Anomaly(deg)": 60.87291676377477,
        "RAAN(deg)": 69.99201906634488,
        "Satellite Name": "Test1 311",
        "Satellite Number": 311,
        "Semi-Major Axis(m)": 6980739.136638005,
        "Time(s)": 190
    }
]